{"type":"FeatureCollection","crs":{"type":"name","properties":{"name":"EPSG:4326"}},"features":[{"type":"Feature","id":1,"geometry":{"type":"Polygon","coordinates":[[[-87.2078837454276,29.4187005126462],[-87.2130690673859,29.3990261678511],[-87.2096121866793,29.3823756422017],[-87.2044268638226,29.3657223633871],[-87.1923277786543,29.3520949062686],[-87.176771811881,29.3414945002247],[-87.1525736415444,29.330892979875],[-87.1335607931661,29.3233197837266],[-87.1145479447879,29.3172608180205],[-87.0972635367629,29.3142311990513],[-87.0817075699896,29.3005967880692],[-87.0747938067796,29.2915061585879],[-87.0938066551579,29.2793840472464],[-87.1059057403262,29.2521039865929],[-87.1110910631829,29.2369452209696],[-87.1249185887045,29.2551354672568],[-87.1249185887045,29.2672604836082],[-87.1197332667462,29.2854452846731],[-87.1370176747711,29.2854452846731],[-87.1439314370828,29.2687760089749],[-87.1491167599394,29.2460407526304],[-87.1664011670661,29.2384611994381],[-87.169858048671,29.2521039865929],[-87.173314930276,29.2869605372573],[-87.1957846602593,29.3142311990513],[-87.2147975086376,29.344523301525],[-87.2286250350575,29.3778341120129],[-87.2320819157642,29.4050802219606],[-87.2078837454276,29.4187005126462]]]},"properties":{"objectid":1,"id":0,"area":116.0802209,"Shape__Area":116675065.63671875,"Shape__Length":75320.471161668}},{"type":"Feature","id":2,"geometry":{"type":"Polygon","coordinates":[[[-87.0989919780146,29.1778043690137],[-87.0972635367629,29.1626344961179],[-87.1231901483512,29.1474623588625],[-87.1352892335195,29.1459450204642],[-87.1819571338393,29.1520142380324],[-87.2096121866793,29.1520142380324],[-87.2061553050743,29.1611173841942],[-87.180228693486,29.1656686519317],[-87.1370176747711,29.1656686519317],[-87.1145479447879,29.1687027172908],[-87.0989919780146,29.1778043690137]]]},"properties":{"objectid":2,"id":0,"area":24.43404426,"Shape__Area":24559626.20703125,"Shape__Length":28701.486986626696}},{"type":"Feature","id":3,"geometry":{"type":"Polygon","coordinates":[[[-87.1612158451077,29.197521816162],[-87.169858048671,29.1899386360985],[-87.180228693486,29.1884219316975],[-87.1854140154443,29.1944886123709],[-87.1612158451077,29.197521816162]]]},"properties":{"objectid":3,"id":0,"area":1.61042564,"Shape__Area":1618697.048828125,"Shape__Length":6221.1459985809106}},{"type":"Feature","id":4,"geometry":{"type":"Polygon","coordinates":[[[-86.3955165880182,27.0957685683501],[-86.5266687824448,27.1014812854324],[-86.6753146878661,27.1370537499075],[-86.8809991384222,27.2081643609561],[-87.0676707406001,27.3039365762539],[-87.2595276647362,27.4104236681439],[-87.3882965011533,27.4952304827402],[-87.498916709818,27.5845916551065],[-87.5784249849362,27.6677239012752],[-87.649291056491,27.7092660864411],[-87.7270708903574,27.767705790406],[-87.7633681467606,27.8121295057523],[-87.8031222838706,27.8751212786494],[-87.8273204551055,27.933470868386],[-87.861889270257,28.0101981587389],[-87.8774452370303,28.0301382191253],[-87.8930012038036,28.0286045002996],[-87.9120140521819,28.0117321421649],[-87.9344837821652,27.9963913169657],[-87.9500397489385,27.9871857623884],[-87.9932507676534,28.016333959769],[-88.0157204976366,28.0470076620753],[-88.01744893799,28.0608079451961],[-88.0226342608466,28.0669408296333],[-88.0226342608466,28.0822714938705],[-88.0226342608466,28.1037307082309],[-88.0209058195949,28.1328469926055],[-88.0088067344267,28.1451040906307],[-88.0053498528217,28.1558278879961],[-88.0053498528217,28.161955285442],[-88.0053498528217,28.1772722276558],[-88.0036214124683,28.1925869537581],[-88.0105351756783,28.218616901207],[-88.0278195828049,28.2323948660584],[-88.0416471092249,28.2323948660584],[-88.0502893127882,28.2415791775371],[-88.0606599576032,28.2568845882022],[-88.0710306015198,28.2752481507697],[-88.0675737199148,28.2859587520631],[-88.0589315163515,28.3073766883964],[-88.0589315163515,28.3196135534471],[-88.0710306015198,28.3394954241206],[-88.0986856543597,28.3486704047074],[-88.1297975879063,28.3486704047074],[-88.1453535546796,28.3410246433796],[-88.1885645733945,28.3593735366318],[-88.2248618297977,28.4021751573897],[-88.2231333885461,28.4266253867776],[-88.226590270151,28.4495422962874],[-88.2231333885461,28.4800903708173],[-88.2023920998144,28.5075760075892],[-88.2058489814195,28.5243692253516],[-88.2006636585628,28.5655774810369],[-88.2127627437311,28.5838870314396],[-88.247331559781,28.5747326589198],[-88.2836288152859,28.5594735823846],[-88.3302967156058,28.5457385025106],[-88.3821499387823,28.544212270708],[-88.4046196687656,28.5381071199875],[-88.4651150955054,28.5113928854604],[-88.5342527258085,28.5022321448182],[-88.5878343893384,28.499178385737],[-88.6621573415999,28.4945975802376],[-88.752036261533,28.4686358889471],[-88.8401867402144,28.4609988698607],[-88.8488289437777,28.4839082530473],[-88.7952472802478,28.503758990823],[-88.8280876550461,28.5465016093294],[-88.8056179250628,28.5541323773498],[-88.8004326022062,28.5968543472929],[-88.864384910551,28.6151583957747],[-88.961177593694,28.6487074466953],[-89.087353769132,28.6822456578021],[-89.1893317733351,28.6852940483634],[-89.3552620867813,28.6898664658483],[-89.53242726477,28.6746242896605],[-89.6344052689731,28.6822456578021],[-89.6724309657296,28.6898664658483],[-89.655146558603,28.6715755846208],[-89.6724309657296,28.6517568224437],[-89.7018144589229,28.6487074466953],[-89.7173704256962,28.6136331812604],[-89.7432970372844,28.6029560547888],[-89.770952089226,28.6060067740979],[-89.8228053124026,28.6304093075539],[-89.8279906343609,28.6563307194091],[-89.8694732127224,28.6700511996219],[-89.9403392842772,28.6746242896605],[-90.0025631513704,28.6959627089855],[-90.0492310516903,28.6959627089855],[-90.1097264784301,28.7249149647421],[-90.1805925499849,28.7264385429853],[-90.279113672583,28.7310091444829],[-90.3473870831586,28.723391363507],[-90.4165247134618,28.7112017472781],[-90.4873907841183,28.6883423493979],[-90.6187522824129,28.6548061095195],[-90.7051743198427,28.6334592215189],[-90.7587559842708,28.6410836135085],[-90.817522969759,28.6517568224437],[-90.8590055481206,28.6700511996219],[-90.8711046332889,28.6822456578021],[-90.8659193113305,28.7157730219328],[-90.8296220549273,28.7218677400686],[-90.7864110362124,28.717296734965],[-90.7587559842708,28.7096779446641],[-90.7311009314309,28.7020585931445],[-90.6818403701319,28.7005346557862],[-90.6127027398287,28.7310091444829],[-90.5902330098455,28.7462430234805],[-90.5954183318038,28.7629976985776],[-90.6006036546604,28.7751812098454],[-90.5971467730554,28.7934537828054],[-90.5902330098455,28.8102007986685],[-90.5694917202155,28.8117231204805],[-90.5712201614672,28.7995439215697],[-90.5712201614672,28.7919311917311],[-90.5556641946939,28.7858406042851],[-90.5504788718373,28.8010663998739],[-90.5331944647106,28.8269450960255],[-90.4467724263825,28.8543389854255],[-90.4450439860292,28.8862893110508],[-90.3931907628527,28.8893316815257],[-90.3447944221795,28.901500262554],[-90.2946696393563,28.9167089630111],[-90.2808421138347,28.9410381967761],[-90.2670145874147,28.953200650129],[-90.2099760422798,28.979041072198],[-90.1667650235649,28.9911990156511],[-90.1097264784301,29.004874976301],[-90.0682439000686,29.0185491077452],[-90.0578732552536,29.0443730346351],[-90.0077484733287,29.0686719429421],[-90.0094769145804,29.1066274038106],[-90.0008347101187,29.1263586574551],[-89.9679943362188,29.1233233288529],[-89.9247833175039,29.1126989654211],[-89.8884860611007,29.1096632297898],[-89.8729300943274,29.1187701656174],[-89.9092273498323,29.1384990664401],[-89.9489814878405,29.1658096900722],[-89.9662658949672,29.1824959042433],[-89.9610805730089,29.2067618670493],[-89.9412035040047,29.2113110888927],[-89.9066346888532,29.2097947045727],[-89.8599667885333,29.2052454146315],[-89.8115704469618,29.1824959042433],[-89.8167557698184,29.196146221927],[-89.8029282433984,29.196146221927],[-89.7873722766251,29.1885629385686],[-89.7942860398351,29.2128274515574],[-89.8150273285667,29.229505936928],[-89.8599667885333,29.2643702672232],[-89.8599667885333,29.299222592265],[-89.84441082176,29.2689169036712],[-89.8253979733817,29.2567920860861],[-89.8081135653568,29.2416340220833],[-89.7856438362718,29.2173764009879],[-89.7683594282469,29.197662810521],[-89.728605291137,29.180979089008],[-89.6698383047505,29.1582241416619],[-89.6266272860356,29.1369815949023],[-89.5799593857157,29.0914469149771],[-89.5402052477075,29.0519670642951],[-89.5246492809342,29.0018360317818],[-89.4952657886393,28.9805608941688],[-89.458968532236,28.9623215436845],[-89.4485978874211,28.9121465889316],[-89.4918089070343,28.9045421833504],[-89.5488474521691,28.9288743006829],[-89.6041575560523,28.9379973581671],[-89.6560107792288,28.9425585822238],[-89.7199630866753,28.9410381967761],[-89.8115704469618,28.9334359309802],[-89.8772511965582,28.9060631095248],[-89.8772511965582,28.8725975295918],[-89.840953940155,28.8543389854255],[-89.7821869546668,28.8254229990739],[-89.7856438362718,28.8010663998739],[-89.7061355611537,28.7249149647421],[-89.6663814231455,28.7127255276947],[-89.6197135228256,28.7005346557862],[-89.5937869112373,28.7112017472781],[-89.5834162673207,28.7371029657594],[-89.5713171812541,28.7538591213164],[-89.4814382622193,28.7538591213164],[-89.4364988022528,28.7721354671575],[-89.4174859538745,28.7782268636183],[-89.4002015467479,28.7584285107269],[-89.3656327315963,28.770612561685],[-89.3293354751931,28.7949763508548],[-89.3293354751931,28.8117231204805],[-89.3244382267767,28.8221250466614],[-89.3152198761295,28.8525636763272],[-89.3083061129195,28.8769081019815],[-89.3126688502671,28.907515691409],[-89.317043965501,28.9258004318823],[-89.3104812926502,28.952740427569],[-89.2869650460221,28.9714980291996],[-89.270011472245,28.9714980291996],[-89.2525110095127,28.96572682503],[-89.2355574366339,28.9565884203888],[-89.2251665366059,28.9315738837443],[-89.2153225264313,28.914252553441],[-89.200009621316,28.9036658576467],[-89.186884274716,28.8988533628276],[-89.1693838119837,28.891634197104],[-89.1475082331193,28.8882650795203],[-89.1283671026235,28.8882650795203],[-89.1119604186997,28.8863398199427],[-89.0939130661141,28.8848958518359],[-89.0818814983225,28.8887463888375],[-89.0758657144267,28.8954844818748],[-89.0873503932632,28.8950032037926],[-89.1092259712293,28.892596781487],[-89.1283671026235,28.8945219242658],[-89.1360235551811,28.9031846182855],[-89.1343828865192,28.9185831606088],[-89.1278202127701,28.934941580206],[-89.1201637602124,28.9445629625099],[-89.1108666398912,28.9450440075053],[-89.0862566144547,28.9426387578339],[-89.0627403669284,28.9383091664565],[-89.0457867940496,28.9383091664565],[-89.0408647889623,28.9334982954579],[-89.0462425354443,28.9111782472774],[-89.0598540062587,28.8966341913951],[-89.0792989649499,28.8786651629913],[-89.1074941550072,28.8726747888891],[-89.1424950804717,28.8735305781012],[-89.1697180221003,28.8778094168587],[-89.1901352283219,28.88807790281],[-89.2086079394827,28.8957785948978],[-89.2231916578274,28.8974897816269],[-89.2251361537863,28.8915005042757],[-89.2183304183792,28.8735305781012],[-89.2144414264613,28.8615488822734],[-89.2027744516059,28.8564134430232],[-89.1920797242808,28.857269366918],[-89.198885459688,28.8675399048192],[-89.1998577081166,28.8718189926287],[-89.1891629807916,28.8692515607719],[-89.1736070140183,28.8632606384607],[-89.1619400382645,28.8589811943564],[-89.1454118239609,28.8538456267038],[-89.128883608759,28.8469978049553],[-89.1191611298626,28.8469978049553],[-89.1016606671303,28.8341569104988],[-89.086104700357,28.8264516058188],[-89.0715209811141,28.8221706323614],[-89.0559650143408,28.8204581929066],[-89.0452702870157,28.8178894805289],[-89.0267975767531,28.8178894805289],[-89.0141583534691,28.8204581929066],[-89.0374923040782,28.8238830428669],[-89.0530482708515,28.8255954252092],[-89.0627707497479,28.8358691222651],[-89.0637429981766,28.8427176844647],[-89.0501315273622,28.8555575112957],[-89.0413812959961,28.8606929936098],[-89.0345755596906,28.8641165059841],[-89.0277698242834,28.8615488822734],[-89.0219363373049,28.8606929936098],[-89.0151306018977,28.8641165059841],[-89.0044358745727,28.8658282198896],[-88.9908244037583,28.8658282198896],[-88.9840186674528,28.8701073789633],[-88.9917966512886,28.8735305781012],[-88.9995746351244,28.8795209020747],[-89.005408122103,28.8855108774811],[-89.0083248664906,28.894922990562],[-89.0131861059388,28.9000565076494],[-89.0238808332639,28.9086117986895],[-89.0238808332639,28.9163109516256],[-89.0209640888763,28.9171663772652],[-89.0170750978567,28.9103227714689],[-88.9888799077994,28.905189767699],[-88.9859631634118,28.9086117986895],[-88.9976301391655,28.9111782472774],[-88.992768898819,28.9146000783951],[-88.9888799077994,28.9205880084842],[-88.9801296764333,28.9248648881639],[-88.9742961885564,28.9231541576175],[-88.9665182056189,28.9205880084842],[-88.9598745110176,28.9198751785788],[-88.9469112052235,28.9267181470168],[-88.9365405604085,28.9335606598981],[-88.9624671719968,28.9335606598981],[-88.9845047916671,28.9347010345368],[-88.9987644284,28.9415430149335],[-89.0091350723167,28.9415430149335],[-89.0428396677407,28.9415430149335],[-89.0739516012873,28.9438235736273],[-89.128397485443,28.9518051293965],[-89.1374717993192,28.9689063709747],[-89.16080574903,29.0179141087927],[-89.1646947409479,29.0384220049856],[-89.1426571212776,29.0634816217487],[-89.1271011545043,29.0873964259818],[-89.1154341796489,29.0976439108703],[-89.1037672038952,29.1010595104366],[-89.0908038989994,29.1021980184409],[-89.0713589403082,29.0851190668888],[-89.0635809564724,29.0851190668888],[-89.0532103116574,29.0965053524981],[-89.0467286596586,29.1067519213874],[-89.0454323287199,29.1215507024524],[-89.0454323287199,29.1306565748674],[-89.058395634514,29.1386235454348],[-89.0726552703486,29.1579693050492],[-89.0570993035753,29.1727606373098],[-89.0454323287199,29.1761737157611],[-89.0363580148437,29.1727606373098],[-89.0272837009674,29.1591071759766],[-89.0233947090495,29.140899707976],[-89.0026534194196,29.1192741067932],[-88.9845047916671,29.0987824566511],[-88.9793194697088,29.062342681848],[-88.9870974526463,29.0201929671722],[-88.9961717674209,28.9951227309475],[-89.0169130561525,28.9814454676382],[-89.0311726919871,28.9791657461956],[-89.0389506758228,28.9689063709747],[-89.0428396677407,28.9586459684485],[-89.0545066425961,28.9586459684485],[-89.0389506758228,28.9540854598158],[-89.0259873700287,28.9540854598158],[-89.0104314032554,28.9529453008823],[-88.9909864445642,28.9575058605133],[-88.9806157997493,28.9483845388423],[-88.9728378168118,28.9461040813357],[-88.9598745110176,28.9449638337565],[-88.9430222133056,28.9449638337565],[-88.9261699164919,28.9426833001621],[-88.9106139497186,28.9575058605133],[-88.8898726600887,28.9803056131968],[-88.8756130242541,29.0076586172303],[-88.8652423794391,29.0338650504371],[-88.8574643956033,29.0908123686346],[-88.8782056852333,29.0270292374649],[-88.8989469739649,28.9905638462671],[-88.9196882635948,28.9666263701116],[-88.9585781800789,28.978025866635],[-88.9689488248939,29.0133562396255],[-88.971541485873,29.0475353049403],[-88.9728378168118,29.0862577527296],[-88.9728378168118,29.0965053524981],[-88.9611708419564,29.0976439108703],[-88.9637635029355,29.105613464541],[-88.9793194697088,29.1124440151337],[-88.9754304777909,29.1386235454348],[-89.0208020480704,29.1920999000381],[-89.02469103909,29.2148472577418],[-89.0233947090495,29.227356130523],[-89.0117277341942,29.2410004127785],[-89.0013570893792,29.2489587290027],[-89.0013570893792,29.2637368002937],[-89.0104314032554,29.2739665091848],[-88.9948754364821,29.2978318080662],[-88.9883937835851,29.3080580683311],[-88.9663561639147,29.3216914724012],[-88.9469112052235,29.3216914724012],[-88.9300589075115,29.3171472091284],[-88.9235772546144,29.3160111109],[-88.9067249578007,29.3069218681268],[-88.8885763300482,29.2921501044543],[-88.8756130242541,29.2807857411505],[-88.8613533875212,29.2660101582679],[-88.8509827427063,29.2489587290027],[-88.8419084288301,29.2353155185855],[-88.8419084288301,29.2171217128649],[-88.8470937516867,29.2023368418861],[-88.86264971846,29.1943748654637],[-88.8678350404183,29.1750360355563],[-88.8743166933154,29.1511418100247],[-88.8769093542945,29.1317947522204],[-88.8652423794391,29.1169974607444],[-88.8457974207479,29.1317947522204],[-88.8457974207479,29.1579693050492],[-88.8419084288301,29.1898248841445],[-88.8328341149538,29.2296303047587],[-88.8419084288301,29.259189931146],[-88.8481740270198,29.2889303313892],[-88.8343465005999,29.3040813122828],[-88.79459236349,29.3480063105698],[-88.7634804299434,29.397966670891],[-88.7306400551451,29.4267204872028],[-88.7029850032035,29.4479022494517],[-88.6891574767836,29.4660544927377],[-88.6736015100103,29.4947888310599],[-88.6736015100103,29.514444425579],[-88.671873069657,29.5401420783042],[-88.658045543237,29.5401420783042],[-88.647674898422,29.5189797847268],[-88.6459464580687,29.4917645518538],[-88.6494033396737,29.4645419305771],[-88.6424895764637,29.4448765565582],[-88.6200198464804,29.4448765565582],[-88.5906363532872,29.4524406180899],[-88.5612528609923,29.4675670307742],[-88.538783131009,29.4766417851938],[-88.5266840458407,29.469079547032],[-88.5197702826307,29.4600041095247],[-88.5042143158574,29.4600041095247],[-88.4990289930008,29.4721045110807],[-88.4869299078325,29.4660544927377],[-88.4748308226642,29.4433636762861],[-88.4540895339325,29.4131012832392],[-88.4471757707226,29.3903985116583],[-88.4454473294709,29.3601201873968],[-88.4454473294709,29.3207447678397],[-88.4454473294709,29.2798386525062],[-88.4523610926809,29.254074459557],[-88.4610032962442,29.2283037091286],[-88.4731023823108,29.2131413828716],[-88.4696455007058,29.1994933505868],[-88.4506326523276,29.1979767890699],[-88.4402620075126,29.2116250256367],[-88.4074216327144,29.2374000164756],[-88.4005078704027,29.2586215584838],[-88.3780381404194,29.2965061055766],[-88.3590252920411,29.3298327667388],[-88.3417408840162,29.3389199479613],[-88.3279133584945,29.3540634306065],[-88.3054436285113,29.3813159702397],[-88.3089005101163,29.4267204872028],[-88.3089005101163,29.4615167393609],[-88.3019867469063,29.4766417851938],[-88.282973898528,29.4796665204755],[-88.276060135318,29.4645419305771],[-88.2743316949647,29.4403378473125],[-88.2674179317547,29.4191544905073],[-88.2553188465864,29.4040207888659],[-88.2432197605198,29.4040207888659],[-88.2224784717882,29.4085611382332],[-88.2121078269732,29.4206677353945],[-88.2121078269732,29.4433636762861],[-88.2242069121415,29.4645419305771],[-88.2363059982081,29.496300937194],[-88.2259353533932,29.4947888310599],[-88.2051940637632,29.5068850378526],[-88.2000087418049,29.5174680211886],[-88.1879096566366,29.5280498869603],[-88.2017371830566,29.5537440479571],[-88.2172931498299,29.5628110000297],[-88.2691463721081,29.5869855195741],[-88.2847023388814,29.6126645385636],[-88.276060135318,29.6217261451529],[-88.2414913201665,29.6217261451529],[-88.1913665382416,29.5975600330023],[-88.14988395988,29.5643220786824],[-88.1308711115018,29.5507215476997],[-88.1135867034768,29.5537440479571],[-88.0634619215519,29.5779207598259],[-88.0254362247954,29.5960494573133],[-88.0046949360638,29.6217261451529],[-87.9908674096438,29.6655123034293],[-87.9813609854547,29.6851343347063],[-87.9588912554714,29.6790971987927],[-87.9277793219248,29.6609835925097],[-87.9174086780082,29.6383369522967],[-87.9156802367565,29.5975600330023],[-87.9156802367565,29.5612998979903],[-87.9053095919415,29.5386306341441],[-87.9001242699832,29.5114207388569],[-87.8862967435633,29.4872279610194],[-87.8448141652017,29.4554660831117],[-87.8171591132601,29.4524406180899],[-87.7877756209652,29.4373119265827],[-87.7307370758303,29.4161279323374],[-87.6754269710489,29.4161279323374],[-87.6443150375022,29.4252073332567],[-87.625302189124,29.4221809577431],[-87.614931544309,29.4131012832392],[-87.5976471371824,29.3934258437121],[-87.5354232691909,29.3631484287772],[-87.488755368871,29.3449776135652],[-87.4420874685511,29.3449776135652],[-87.4196177385679,29.3631484287772],[-87.3936911269796,29.3722326087063],[-87.362579193433,29.3601201873968],[-87.3314672598864,29.3464919729278],[-87.3124544115082,29.3192300221103],[-87.2934415631299,29.2843845938649],[-87.2986268850882,29.2631684529024],[-87.3159112931131,29.240431937489],[-87.3245534966764,29.2161740292359],[-87.3262819379281,29.2101086451781],[-87.3141828518615,29.2010098888856],[-87.2899846815249,29.1919103171118],[-87.2727002743982,29.1919103171118],[-87.2450452215583,29.1964602051202],[-87.2346745776417,29.2085922422809],[-87.2156617292634,29.2146577176663],[-87.2052910844484,29.2025264055343],[-87.2035626431968,29.1812931186353],[-87.2139332880118,29.1691578188112],[-87.2744287147516,29.1555038736118],[-87.3210966150715,29.1706748103523],[-87.3470232266597,29.1843267173948],[-87.362579193433,29.1979767890699],[-87.366036075038,29.1949435987382],[-87.3781351602063,29.1979767890699],[-87.3936911269796,29.2131413828716],[-87.4006048901896,29.2222390503068],[-87.4092470937529,29.217690318364],[-87.4092470937529,29.1888769449807],[-87.4040617717946,29.1737087261741],[-87.366036075038,29.1630896253238],[-87.3418379047014,29.1570210692531],[-87.3435663450547,29.1297080846376],[-87.359122311828,29.0782487269003],[-87.4196177385679,29.0053414933366],[-87.481841605661,28.9567077773321],[-87.5215957436692,28.9095718476429],[-87.5285095068792,28.8791500824609],[-87.5164104208126,28.8578494901038],[-87.5112250988543,28.8471975397155],[-87.5527076772158,28.7649883257253],[-87.5630783220308,28.7375706990929],[-87.5820911704091,28.728429874056],[-87.5872764923674,28.7208119035462],[-87.5907333739724,28.7025264856229],[-87.5941902555774,28.6842378387979],[-87.6615994446289,28.6689948347752],[-87.6771554123005,28.6552742146959],[-87.6806122930072,28.6339274227565],[-87.6996251413854,28.5973227141157],[-87.7030820229904,28.577489782712],[-87.7255517529737,28.5683348479068],[-87.7393792793937,28.5820669485883],[-87.748021482957,28.5439177527038],[-87.748021482957,28.513388340826],[-87.7566636865203,28.47368675407],[-87.748021482957,28.4309143342793],[-87.737650838142,28.3710035938789],[-87.7082673458471,28.3006565627548],[-87.6754269710489,28.2532222534571],[-87.6546856823172,28.178201942551],[-87.6460434778556,28.101595758789],[-87.621845307519,28.0218666622102],[-87.5665352036358,27.9221213419957],[-87.499126013686,27.8422580606265],[-87.3971480085846,27.7592601838538],[-87.2917131227765,27.6900463967728],[-87.2346745776417,27.633104041716],[-87.1638085060869,27.5684304774162],[-87.0929424354304,27.5222114756421],[-86.9996066338923,27.4528461554354],[-86.9417038681317,27.4155247802382],[-86.92787634261,27.4000990021515],[-86.8656524746185,27.3615250389272],[-86.805157048777,27.3275687124299],[-86.7515753852472,27.2920576768659],[-86.7031790436756,27.2642584226483],[-86.6547827021041,27.233362122927],[-86.6098432421376,27.2179107215186],[-86.5683606646743,27.2070934520344],[-86.5268780863128,27.2024571542994],[-86.4888523895562,27.2055480414162],[-86.4439129295897,27.2117295545144],[-86.3920597064132,27.2318170799035],[-86.3557624509082,27.2441768140671],[-86.3419349244883,27.2858806718576],[-86.3108229909417,27.2920576768659],[-86.2762541757901,27.2966902021571],[-86.2347715974286,27.3074986689483],[-86.2330431570752,27.3368305719956],[-86.2244009526136,27.3599817975833],[-86.1915605787137,27.37387018646],[-86.1552633223105,27.387756813322],[-86.1397073555372,27.4247792032308],[-86.1224229484105,27.4525377662468],[-86.0792119287973,27.4556216153414],[-86.067112843629,27.4556216153414],[-86.0308155881241,27.4772061192248],[-86.0014320949309,27.4849138353924],[-85.961677957821,27.4957037221222],[-85.9253807014178,27.4987863505234],[-85.8908118862662,27.4987863505234],[-85.8545146307613,27.4910796156736],[-85.821674255963,27.4648726403793],[-85.8113036111481,27.4432856960106],[-85.8078467295431,27.387756813322],[-85.821674255963,27.3538086155242],[-85.8268595779214,27.3337433725185],[-85.8424155446946,27.3213937052691],[-85.8683421562829,27.3074986689483],[-85.8804412414512,27.2951460485351],[-85.8838981230562,27.2750700791272],[-85.9029109714345,27.258079857009],[-85.9288375830227,27.258079857009],[-85.9392082278377,27.2472665307446],[-85.9789623649476,27.2302720162369],[-86.0048889765359,27.2210011752191],[-86.0221733836625,27.2210011752191],[-86.0584706400657,27.2148201812815],[-86.091311014864,27.2101842089837],[-86.1103238632422,27.2086388412238],[-86.1241513887639,27.1978206621304],[-86.1379789151838,27.1931839747506],[-86.1656339671254,27.1854557297745],[-86.193289019067,27.1885470929812],[-86.207116545487,27.1792727439643],[-86.2434138009919,27.159175649144],[-86.3246505173617,27.1251568548876],[-86.3955165880182,27.0957685683501]]]},"properties":{"objectid":4,"id":0,"area":33912.216587200004,"Shape__Area":34088128297.976563,"Shape__Length":2464582.06399636}},{"type":"Feature","id":5,"geometry":{"type":"Polygon","coordinates":[[[-88.8178546060815,27.7382889976219],[-88.8191850271869,27.727634723433],[-88.8391413455654,27.7134273878009],[-88.867080191475,27.6956655887071],[-88.8817148245333,27.6767164492428],[-88.8963494575916,27.6518406626576],[-88.926949145712,27.6257741804085],[-88.9402533585633,27.6328838434325],[-88.9163057759701,27.6471017688015],[-88.8976798795954,27.6779008678338],[-88.8857060878497,27.6992181822119],[-88.8604280850494,27.7217152282075],[-88.8178546060815,27.7382889976219]]]},"properties":{"objectid":5,"id":0,"area":30.99294943,"Shape__Area":31156731.169921875,"Shape__Length":40655.540965682194}},{"type":"Feature","id":6,"geometry":{"type":"Polygon","coordinates":[[[-89.2662065563495,28.5871979394038],[-89.2688673985604,28.5778031144829],[-89.2835020316187,28.5754542761354],[-89.3194234050593,28.5825006330371],[-89.3513535133869,28.5637092882809],[-89.4059007841004,28.5484388239947],[-89.4285179446898,28.5519629753939],[-89.3899357290383,28.5590109219846],[-89.3766315170855,28.5695819472669],[-89.4192049960533,28.5695819472669],[-89.4577872108065,28.5778031144829],[-89.4351700502171,28.5871979394038],[-89.3739706748746,28.5860236320896],[-89.346031828965,28.6012885859482],[-89.3007975077863,28.5977661031743],[-89.2662065563495,28.5871979394038]]]},"properties":{"objectid":6,"id":0,"area":55.71273288,"Shape__Area":56002283.3515625,"Shape__Length":58127.363444667353}},{"type":"Feature","id":7,"geometry":{"type":"Polygon","coordinates":[[[-90.4347021798298,28.6619169614117],[-90.4363549290356,28.6517121745379],[-90.4561879177087,28.6385902595011],[-90.4859374007184,28.6152583173968],[-90.5140341345223,28.6123414562854],[-90.510728637009,28.6065074878972],[-90.4842846515126,28.5904623882708],[-90.447924172578,28.5729558218241],[-90.4313966823165,28.5612831411539],[-90.4181746895683,28.5481498122732],[-90.3966889516894,28.5262572539372],[-90.4280911839049,28.5277169005479],[-90.4975066442608,28.539393340972],[-90.5305616256821,28.5525277729586],[-90.5685748538225,28.5758737871054],[-90.6065880819629,28.5846271933471],[-90.6049353327571,28.5933798631032],[-90.599977086038,28.6065074878972],[-90.5619638569992,28.621091794217],[-90.5206451313455,28.6458804169763],[-90.4677571612511,28.6458804169763],[-90.4347021798298,28.6619169614117]]]},"properties":{"objectid":7,"id":0,"area":162.25907264999998,"Shape__Area":163102242.77734375,"Shape__Length":77034.2867022745}},{"type":"Feature","id":8,"geometry":{"type":"Polygon","coordinates":[[[-90.3735504646046,28.695439907742],[-90.3173569969969,28.7158398712883],[-90.2826492672681,28.7114687889843],[-90.2214975520429,28.7085546315837],[-90.173567829566,28.7027260701008],[-90.1190271102657,28.7070975216533],[-90.1305963538081,28.6939826136135],[-90.1553875892004,28.6866958362986],[-90.1884425706217,28.6866958362986],[-90.2231503012488,28.6808660456912],[-90.262816278595,28.6837809819559],[-90.2876075139872,28.6852384196634],[-90.3173569969969,28.6910679644928],[-90.3355372364642,28.6837809819559],[-90.358675723549,28.6910679644928],[-90.3735504646046,28.695439907742]]]},"properties":{"objectid":8,"id":0,"area":73.57256585,"Shape__Area":73954077.328125,"Shape__Length":58901.018092178616}},{"type":"Feature","id":9,"geometry":{"type":"Polygon","coordinates":[[[-90.1917480690333,28.6356740537182],[-90.0975413723868,28.6356740537182],[-90.0182094176944,28.6400483319982],[-89.9901126838905,28.6560857777182],[-89.958710451675,28.6546279305244],[-89.9487939573385,28.6298413950732],[-89.9967236798154,28.5933798631032],[-90.0760556345079,28.5758737871054],[-90.11737436106,28.5642014340849],[-90.0942358748735,28.5379338568736],[-90.069444638583,28.5116596620507],[-90.0446534031907,28.4955999533941],[-90.0297786612367,28.4766171137262],[-90.021514916106,28.459091432578],[-90.0810138821253,28.4780774542918],[-90.0991941215926,28.486839071292],[-90.1471238440696,28.5160391538597],[-90.1983590649582,28.5481498122732],[-90.2181920536313,28.5860860230295],[-90.1917480690333,28.6356740537182]]]},"properties":{"objectid":9,"id":0,"area":318.67905277999995,"Shape__Area":320335277.55859375,"Shape__Length":103266.76328112255}},{"type":"Feature","id":10,"geometry":{"type":"Polygon","coordinates":[[[-89.6712586112833,28.5702987944494],[-89.6684566392496,28.5529823661139],[-89.6698576248173,28.5282396209599],[-89.6992783271279,28.5059661314317],[-89.7315010014722,28.5072036722914],[-89.7581197326475,28.5356630610595],[-89.7609217037828,28.5628778208086],[-89.744109874276,28.5641146863527],[-89.721694100702,28.5406117274429],[-89.7076842423305,28.5381374240952],[-89.7020802991616,28.5443230731078],[-89.6712586112833,28.5702987944494]]]},"properties":{"objectid":10,"id":0,"area":48.86409304,"Shape__Area":49118267.033203125,"Shape__Length":34510.887527457227}},{"type":"Feature","id":11,"geometry":{"type":"Polygon","coordinates":[[[-89.612417206662,28.5344258581462],[-89.6194221353986,28.5022534209634],[-89.6376349513713,28.5022534209634],[-89.661451710513,28.4923522144754],[-89.6866694552224,28.4774986455489],[-89.6908724128237,28.4923522144754],[-89.6726595968509,28.5059661314317],[-89.6446398801079,28.5171034701971],[-89.6250260785675,28.5331886399175],[-89.6208231209663,28.5369002494462],[-89.612417206662,28.5344258581462]]]},"properties":{"objectid":11,"id":0,"area":22.25517428,"Shape__Area":22370998.390625,"Shape__Length":25150.144558444597}}]}