{"type":"FeatureCollection","crs":{"type":"name","properties":{"name":"EPSG:4326"}},"features":[{"type":"Feature","id":1,"geometry":{"type":"Polygon","coordinates":[[[-87.5096197402713,27.8328005278476],[-87.5376361925365,27.83537697075],[-87.5617883071468,27.8370945648368],[-87.5675848149767,27.8328005278476],[-87.5559918002153,27.8276474569471],[-87.5337718548816,27.821635229039],[-87.5482631231088,27.8190584567609],[-87.5646865606126,27.821635229039],[-87.5685508991658,27.8130457476637],[-87.5550257151278,27.8044555797867],[-87.5434327003664,27.7941464720917],[-87.5395683618131,27.7864139934497],[-87.5569578844044,27.7924281914758],[-87.5714491526316,27.8001602383538],[-87.5704830684425,27.7924281914758],[-87.5859404217571,27.7889915479681],[-87.6004316899843,27.7855547942368],[-87.6187872976631,27.7889915479681],[-87.6265159738712,27.7967238416894],[-87.6313463966137,27.803596524766],[-87.6400411579093,27.803596524766],[-87.6506680884816,27.8044555797867],[-87.6342446500794,27.7984420536039],[-87.6323124817011,27.7907098836991],[-87.6458376657392,27.7958647255458],[-87.662261103243,27.7993011493745],[-87.6864132178533,27.8027374637479],[-87.708633163187,27.8061736678625],[-87.7269887699674,27.8044555797867],[-87.7240905156033,27.8139047263743],[-87.7202261779484,27.8207763114761],[-87.7318191927098,27.8259297117489],[-87.7376156996413,27.8233530429852],[-87.7318191927098,27.8199173871186],[-87.7279548541566,27.8104687691823],[-87.7327852768989,27.8078917287686],[-87.7434122074712,27.8130457476637],[-87.746310460937,27.8044555797867],[-87.7569373915093,27.8104687691823],[-87.7801234210321,27.8130457476637],[-87.8033094514532,27.8233530429852],[-87.8168346354913,27.8379533516842],[-87.8081398741956,27.8499756450085],[-87.7955807743467,27.8405296706465],[-87.785919928862,27.841388430303],[-87.7743269141006,27.8362357711921],[-87.7694964913581,27.8293651749617],[-87.7636999835283,27.8345181635109],[-87.7762590833772,27.844823398564],[-87.7791573368429,27.8542689950079],[-87.7772251675663,27.8662894605262],[-87.7762590833772,27.8722991881952],[-87.7849538446728,27.8619965921391],[-87.7917164366918,27.8619965921391],[-87.8013772821766,27.8697236320054],[-87.8023433663658,27.8843176331179],[-87.8052416207299,27.8911847106534],[-87.8149024662147,27.9006262239711],[-87.8033094514532,27.9006262239711],[-87.8091059583848,27.90749225655],[-87.8178007196804,27.9092086950231],[-87.8274615660635,27.9049175453942],[-87.8400206650141,27.8980513486315],[-87.8477493421206,27.8954764112335],[-87.8467832570331,27.908350479191],[-87.8342241580826,27.9177904788303],[-87.8197328889571,27.92036487959],[-87.806207704919,27.92036487959],[-87.8023433663658,27.9272296456899],[-87.7917164366918,27.92036487959],[-87.7820555903087,27.9298038192963],[-87.792682520881,27.9306618632762],[-87.806207704919,27.9358099840911],[-87.8023433663658,27.9435316998579],[-87.7917164366918,27.9409578564563],[-87.7743269141006,27.9358099840911],[-87.7733608290131,27.923797317527],[-87.7820555903087,27.9186486189628],[-87.7685304062707,27.9169323310938],[-87.7656321528049,27.9032010372488],[-87.753073052956,27.8929014117809],[-87.7472765460245,27.8980513486315],[-87.7617678142517,27.908350479191],[-87.7608017300625,27.9177904788303],[-87.7588695607859,27.9289457685041],[-87.7434122074712,27.9306618632762],[-87.7434122074712,27.9366679795879],[-87.7608017300625,27.9366679795879],[-87.7617678142517,27.9443896332361],[-87.7685304062707,27.9512528573069],[-87.7752929982897,27.9589734579259],[-87.7868860130511,27.958115640414],[-87.7975129436234,27.9589734579259],[-87.7888181823277,27.9658357446669],[-87.7965468594342,27.9684089887099],[-87.8052416207299,27.9675512477782],[-87.8091059583848,27.9701244501178],[-87.8206989740445,27.9701244501178],[-87.8120042127489,27.9795589963295],[-87.8178007196804,27.9847047612375],[-87.8226311424228,27.9752706698954],[-87.8342241580826,27.9735552911083],[-87.8467832570331,27.9709821705938],[-87.8583762717946,27.9787013448412],[-87.839054580825,27.9838471506723],[-87.8487154263098,27.9898502774162],[-87.8651388638136,27.9864199611114],[-87.8738336251092,28.0061427756615],[-87.8641727796244,28.0232900844297],[-87.8622406103478,28.042148936821],[-87.8641727796244,28.0635753965917],[-87.8805962171282,28.0772860651888],[-87.8960535704429,28.0772860651888],[-87.8950874862538,28.0892814511533],[-87.8950874862538,28.1047020988827],[-87.8960535704429,28.1192639881839],[-87.9095787544809,28.1269724152099],[-87.9250361077956,28.1252594801204],[-87.9308326156255,28.1329674712543],[-87.9540186451483,28.1535193750485],[-87.9801029290352,28.1672184306214],[-87.9965263665391,28.1798884790641],[-88.0139158891303,28.1978636483454],[-88.0313054108233,28.2149800166863],[-88.0351697493766,28.2389382770208],[-88.0419323413956,28.2509153691855],[-88.0593218639869,28.2415049112376],[-88.0873383162521,28.2329492210721],[-88.120185192158,28.2329492210721],[-88.1482016444233,28.2149800166863],[-88.1878111123483,28.1995754099295],[-88.2409457643113,28.207021249779],[-88.2737926393189,28.2078770598521],[-88.3172664457971,28.1881916747797],[-88.360740251377,28.1787756298603],[-88.4129088182525,28.181343725204],[-88.4621791316623,28.182199743281],[-88.5220763756443,28.1847677556056],[-88.5201442063677,28.21301177551],[-88.5500928288079,28.2241361364998],[-88.5703806048649,28.2446703409556],[-88.608057902615,28.2455258460544],[-88.667955146597,28.260923753169],[-88.6776159920818,28.2703324797822],[-88.6380065250551,28.274608895895],[-88.6524977932824,28.2805955865592],[-88.6882429226541,28.2797403660902],[-88.6969376839497,28.2942781759939],[-88.6805142464459,28.3122338767368],[-88.6998359374155,28.3199282401504],[-88.7491062508252,28.3088139791206],[-88.7558688428443,28.297698545609],[-88.7974104800459,28.2917128260542],[-88.8341216936067,28.2925679495705],[-88.8592398924062,28.2900025576219],[-88.8901545990355,28.2882922617126],[-88.9374927431687,28.2951332789007],[-88.9877291416659,28.3019738508655],[-89.008016917723,28.3301865157398],[-88.9761361260062,28.3481360909774],[-88.9345944897029,28.3643735417308],[-88.928797981873,28.3934237677833],[-88.9674413656088,28.4096542152235],[-88.9577805192257,28.4199037296308],[-88.9635770270556,28.4386919025688],[-88.9693735339871,28.4487678070773],[-88.9857969723893,28.4615747592897],[-89.0225081859502,28.4658433951559],[-89.0621176538751,28.4905980470238],[-89.0669480766175,28.5165414561386],[-89.0882019368637,28.5344591259579],[-89.0949645288828,28.5523737172592],[-89.1287774889779,28.5660208635186],[-89.1674208727137,28.6043938746185],[-89.2166911861234,28.6214440037416],[-89.2041320862746,28.6384913361458],[-89.1790138874751,28.6606486844481],[-89.1345739968077,28.676837601463],[-89.1867425636833,28.6930239917624],[-89.2466398076653,28.7058009345433],[-89.2736901757414,28.7126146594742],[-89.3239265733403,28.7049491868371],[-89.3326213346359,28.681097423076],[-89.3645021263527,28.6623528999928],[-89.4041115933794,28.6615007956839],[-89.4137724388642,28.6308203824842],[-89.4012133399136,28.5771078532069],[-89.4050776784669,28.5446964120708],[-89.459178414619,28.5489616515049],[-89.5036183052864,28.5370185417313],[-89.5016861360098,28.5088615133464],[-89.5683459711125,28.4977672653071],[-89.6118197775907,28.5122748909957],[-89.6388701456668,28.491792951079],[-89.6552935831706,28.4866718382474],[-89.7345125181222,28.569432370852],[-89.7683254782173,28.6291156497915],[-89.7712237325814,28.65809230918],[-89.8011723541233,28.6751336246266],[-89.7886132551727,28.6759856165094],[-89.9625084783906,28.7679595472739],[-89.9963214384857,28.7798761066966],[-90.0291683143917,28.783280585589],[-90.0552525973803,28.7815783596399],[-90.0813368812672,28.7764715158948],[-90.1141837571732,28.7892381524982],[-90.1827757615525,28.7602981761889],[-90.1711827467911,28.783280585589],[-90.1151498413623,28.811363249506],[-90.0542865131911,28.8283793251075],[-90.0938959811161,28.8709072190133],[-90.1789114229993,28.846243179849],[-90.2590964430384,28.8181700167072],[-90.3605353233237,28.7994503254372],[-90.4107717218209,28.7671083115916],[-90.4503811888475,28.7781738251854],[-90.437822089897,28.8037050989329],[-90.3576370698579,28.8190208308374],[-90.2938754882209,28.8300807779976],[-90.2523338510193,28.8419901623762],[-90.2310799907731,28.858150695333],[-90.267791204334,28.8794106893702],[-90.2330121600497,28.9202175557246],[-90.1740810002569,28.9601585664855],[-90.1393019559726,28.9763005166791],[-90.1180480948281,28.9983853786037],[-90.1170820106389,28.9805479750904],[-89.9354581103145,28.7934933475771],[-89.7934436779151,28.6896165402308],[-89.7731559018581,28.7006903466673],[-89.7915115086385,28.7322016208388],[-89.7180890806184,28.7075044075783],[-89.6775135285043,28.7075044075783],[-89.6581918366364,28.7228344063966],[-89.6301753843712,28.7202795640864],[-89.6040911004842,28.7075044075783],[-89.5847694095146,28.7083561336949],[-89.5664138027342,28.723686006102],[-89.5412956030364,28.7381621341858],[-89.5103808973054,28.7594468772351],[-89.4756018521228,28.7892381524982],[-89.4669070908272,28.8207224382444],[-89.4582123295316,28.81391584022],[-89.4379245534745,28.8377369686777],[-89.4301958772663,28.8649543712902],[-89.4466193147701,28.8513465694033],[-89.4572462453424,28.8573002042351],[-89.4437210613044,28.876009385373],[-89.4234332852473,28.8836621603993],[-89.3954168320837,28.902366545807],[-89.3664342947311,28.929566845599],[-89.3335874197234,28.9312666254073],[-89.3374517573783,28.9197075699708],[-89.3587056185229,28.9180075990835],[-89.3828577331332,28.8942050506816],[-89.3838238173223,28.8771998542819],[-89.3954168320837,28.8550888948228],[-89.419568946694,28.8346745609371],[-89.4446871454935,28.7963867798605],[-89.459178414619,28.7742584715797],[-89.5007200509223,28.7402056600675],[-89.4871948668843,28.7163620167627],[-89.445653230581,28.7274329635015],[-89.4253654545239,28.7393541957417],[-89.4099081012093,28.7402056600675],[-89.4176367774174,28.7163620167627],[-89.4012133399136,28.7086968226726],[-89.4079759319326,28.6976238720889],[-89.4243993694364,28.7001792732852],[-89.4446871454935,28.693364730658],[-89.459178414619,28.6814382015731],[-89.4282637079897,28.6874016371064],[-89.392518578618,28.6908091615127],[-89.359671702712,28.7078450993298],[-89.3587056185229,28.7206202134396],[-89.342282181019,28.7282845249605],[-89.3345535039126,28.7265813943177],[-89.308469220924,28.7342452640741],[-89.2659614995332,28.7282845249605],[-89.2079964248278,28.7069933682649],[-89.1906069022365,28.7095485382934],[-89.1558278579523,28.7001792732852],[-89.1693530419903,28.7155103566205],[-89.1538956886756,28.732542231345],[-89.1374722502735,28.7265813943177],[-89.1210488127697,28.7257298174092],[-89.1191166434931,28.7402056600675],[-89.1326418275311,28.7470171193426],[-89.1307096582545,28.738502724477],[-89.1423026730159,28.736799761919],[-89.1471330966566,28.7555308138964],[-89.1355400809969,28.7623412634639],[-89.1094557980083,28.7538281313003],[-89.0911001912278,28.7538281313003],[-89.0640498231517,28.7453142971464],[-89.0514907233029,28.7308391700766],[-89.038931623454,28.7308391700766],[-89.0099490869996,28.7163620167627],[-88.9867630565784,28.7069933682649],[-88.9732378725404,28.7095485382934],[-88.9761361260062,28.7163620167627],[-88.961644857779,28.7580847849421],[-88.9761361260062,28.7776631353937],[-88.9886952258551,28.7759608169821],[-88.9964239020632,28.7844721265141],[-88.9896613100442,28.8100018422159],[-88.9674413656088,28.8287196177529],[-88.975170041817,28.8465834140815],[-88.9906273951317,28.8644441116493],[-88.9906273951317,28.8414797884695],[-88.9983560713399,28.8185103435083],[-89.0089830019121,28.8236151073371],[-89.0109151711888,28.8448822333641],[-89.0012543257039,28.8559394040083],[-89.0128473404654,28.8806011185158],[-89.014779509742,28.8967555874817],[-89.0398977085414,28.9154575893274],[-89.0640498231517,28.933306322813],[-89.0824054299322,28.9469032744328],[-89.0911001912278,28.943504205372],[-89.1142862207507,28.9469032744328],[-89.0901341061404,28.9265071717084],[-89.0717784993599,28.9197075699708],[-89.0669480766175,28.9078071823491],[-89.0824054299322,28.9086572560406],[-89.1133201365615,28.923957373309],[-89.1220148969588,28.9384053915041],[-89.1635565341604,28.9350060405139],[-89.1577600263306,28.9554004532347],[-89.1799799716643,28.959648778843],[-89.1954373249789,28.9757908093228],[-89.1461670115691,28.9910809132588],[-89.1432687581034,29.0080672385897],[-89.1529296035882,29.0301452441853],[-89.138438335361,29.0471250806245],[-89.1509974343115,29.0717408297511],[-89.131675743342,29.0666484027681],[-89.1181505593039,29.0820097828789],[-89.1094557980083,29.0930413901907],[-89.1094557980083,29.1049202474365],[-89.098828867436,29.1176460581871],[-89.0659819915301,29.0930413901907],[-89.0563211460453,29.0760691923028],[-89.0418298778181,29.0735231183782],[-89.052456807492,29.0871014420998],[-89.0553550618561,29.1032233527628],[-89.035067285799,29.1142526644888],[-89.008016917723,29.1337631355108],[-88.9828987180252,29.1710770915965],[-88.9713057032638,29.1846424072846],[-88.9664752805214,29.1898137071973],[-88.9857969723893,29.1940522810014],[-88.9790343803703,29.2050717438613],[-88.968407449798,29.2152424943925],[-88.9645431112448,29.2228698875291],[-88.9529500964833,29.2194800058348],[-88.9635770270556,29.2025288975309],[-88.9452214202752,29.199985986552],[-88.9307301511496,29.194899974583],[-88.9143067136458,29.1965953399384],[-88.9316962362371,29.208462107766],[-88.9442553351877,29.2152424943925],[-88.9355605738921,29.2194800058348],[-88.9094762909034,29.2126999019851],[-88.9191371363882,29.2228698875291],[-88.9384588282561,29.2423595078646],[-88.9577805192257,29.2491376276528],[-88.9828987180252,29.2423595078646],[-88.9993221564273,29.2296493112004],[-89.0176777632078,29.2186325178822],[-89.0360333699882,29.2237173404231],[-89.0341012007116,29.2355809344234],[-88.9954578178741,29.252526517211],[-88.9771022110937,29.2686221950985],[-88.9558483499491,29.264386738322],[-88.9384588282561,29.2550681105124],[-88.9123745443692,29.2423595078646],[-88.8920867683122,29.2118523571616],[-88.8872563455698,29.1864227210859],[-88.8891885148464,29.1694660903054],[-88.8988493603312,29.1465701501258],[-88.9133406285584,29.1363925217848],[-88.9007815296078,29.1228207667018],[-88.9075441216268,29.1134891347156],[-88.8969171910545,29.1058535276995],[-88.8882224297589,29.0999143266237],[-88.8766294149975,29.10245974115],[-88.8650364002361,29.0905805968389],[-88.8486129627323,29.0888834626581],[-88.8370199470725,29.0905805968389],[-88.8215625946562,29.0905805968389],[-88.805139156254,29.0871863012946],[-88.791613972216,29.0905805968389],[-88.7925800573035,29.1160342103532],[-88.7877496336628,29.1533546696405],[-88.7722922812464,29.1720097650389],[-88.7578010121209,29.1838794067571],[-88.7597331813975,29.1965953399384],[-88.7722922812464,29.2135474397982],[-88.7645636041399,29.2237173404231],[-88.7693940268823,29.2406649067868],[-88.7713261961589,29.250832086856],[-88.8090034948073,29.2686221950985],[-88.798376564235,29.2728574740554],[-88.7713261961589,29.2609982456335],[-88.7481401666361,29.252526517211],[-88.7201237134725,29.2457486242734],[-88.7452419131703,29.2652338443409],[-88.7230219678366,29.2567624699183],[-88.7056324452454,29.2542209195006],[-88.7123950372644,29.2711633836866],[-88.7259202213024,29.2957249185064],[-88.7133611214535,29.2952168091032],[-88.6872768384649,29.2774313764692],[-88.6872768384649,29.2926762249486],[-88.6843785841008,29.3053785089447],[-88.6940394304839,29.3087655151114],[-88.6940394304839,29.3248522435074],[-88.6727855693394,29.3214657767724],[-88.6795481613584,29.3341644417877],[-88.6621586396654,29.3485543307437],[-88.6438030319867,29.3544789820161],[-88.6167526639106,29.3451686590417],[-88.6022613956834,29.3519398883902],[-88.5848718730921,29.3519398883902],[-88.5665162663117,29.3460150871212],[-88.5723127732433,29.3350109628148],[-88.590668380922,29.3324713786486],[-88.6032274798726,29.3231590241936],[-88.6022613956834,29.303684963324],[-88.5926005501986,29.2748903452789],[-88.5674823505009,29.2579485049587],[-88.5413980675122,29.2655726841565],[-88.5124155301595,29.2587956643123],[-88.4824669077194,29.2681139493303],[-88.4525182861775,29.2647255817285],[-88.4254679181014,29.2808193189913],[-88.407112311321,29.3011445914302],[-88.3906888738172,29.3070720264686],[-88.3848923659873,29.3011445914302],[-88.3945532114721,29.2842071484009],[-88.3713671819493,29.294567554433],[-88.3546217154841,29.3273073608016],[-88.330147573709,29.3634217259891],[-88.2850636260173,29.371320019471],[-88.2541489202862,29.3216633240143],[-88.2322510030156,29.282146232709],[-88.2142174242982,29.2800005772325],[-88.1794383791157,29.3025841432908],[-88.1523880110396,29.3150029540484],[-88.0982872748874,29.3150029540484],[-88.0493389895407,29.3364500314118],[-88.002966930495,29.3443504381054],[-87.9604592091043,29.365791278678],[-87.9321207278777,29.3906118194935],[-87.9102228106071,29.3928679285475],[-87.8741556531723,29.3849713244188],[-87.8471052850962,29.3928679285475],[-87.8097500154092,29.406403524084],[-87.7968688874973,29.4221927516701],[-87.753073052956,29.4255758347077],[-87.7208702340745,29.4233204585345],[-87.6963960914011,29.4447444905598],[-87.6667694979223,29.4402345481696],[-87.6281261150848,29.4357244022844],[-87.6049400846637,29.4255758347077],[-87.5753134911849,29.415426243701],[-87.5547036870647,29.4424895448027],[-87.5147721910767,29.4548911225818],[-87.4696882442833,29.4515090256803],[-87.4490784401631,29.4312140544877],[-87.4477903270126,29.4120428187852],[-87.4465022147604,29.3827150378889],[-87.428468636043,29.3703045591197],[-87.4065707187724,29.349993206567],[-87.3846728015018,29.3375786989882],[-87.3408769678588,29.3330639537102],[-87.3099622612295,29.32854900695],[-87.302233584123,29.3161318613408],[-87.2700307652415,29.3206473640379],[-87.2455566225681,29.3217762080926],[-87.2120656905361,29.3172607561429],[-87.1901677741638,29.3183896376711],[-87.1863034356105,29.3341926587726],[-87.2133538036866,29.3319352361531],[-87.2391160586121,29.3488646780286],[-87.2507090742719,29.3759458757731],[-87.2391160586121,29.401891861191],[-87.2197943676426,29.4086592796651],[-87.2017607889252,29.3973799965277],[-87.1953202249692,29.3815868758621],[-87.1798628716545,29.3860994489213],[-87.1605411797866,29.3883556596173],[-87.2082013528811,29.1679115910759],[-87.2700307652415,29.1599974072252],[-87.342165080111,29.130596472375],[-87.3614867719789,29.0740323380388],[-87.4142993949806,29.0095109457519],[-87.4774169213897,28.9562784553033],[-87.5263652058381,28.9018848089025],[-87.5289414312409,28.879212282924],[-87.5109078525235,28.8485964410337],[-87.4606714549246,28.8480293953844],[-87.4568071163713,28.8219419063961],[-87.4452141016099,28.8071938823113],[-87.4606714549246,28.7935784499276],[-87.4645357934778,28.766342193541],[-87.4490784401631,28.7356928207824],[-87.4787050336419,28.7334221352373],[-87.4774169213897,28.7016273063451],[-87.4980267255099,28.6925412761],[-87.5199246418822,28.6936770736058],[-87.5418225591528,28.6811826178042],[-87.5315176575419,28.6561891887317],[-87.5469750108566,28.6345991081132],[-87.5817540551408,28.6152778634111],[-87.6268380019343,28.5788987179585],[-87.7260226848799,28.5800357588547],[-87.7504968275533,28.6118678592712],[-87.7479206021506,28.6720947951264],[-87.7698185194212,28.6823185393155],[-87.7711066316734,28.6243706617414],[-87.7981569997495,28.6198243617908],[-87.8007332260505,28.5845837979355],[-87.7942926620946,28.5447817182997],[-87.7942926620946,28.5004129234028],[-87.7904283235413,28.4252843234891],[-87.7826996473331,28.3717507819697],[-87.7582255046598,28.3671934741339],[-87.7633779554652,28.3364264771155],[-87.7608017300625,28.2976700424492],[-87.753073052956,28.2782864745032],[-87.7440562635973,28.2557058256236],[-87.7389038127919,28.2328921808882],[-87.7363275873892,28.2112146535438],[-87.7231244314142,28.1891047008463],[-87.7067009939103,28.1711280438763],[-87.6951079791489,28.147154419268],[-87.6815827951109,28.1266012815308],[-87.6748202030919,28.1077574059487],[-87.6728880338152,28.0966208161394],[-87.6583967646897,28.080342161433],[-87.6361768193561,28.0503486384262],[-87.6100925363674,28.02377588483],[-87.5666187298892,27.9937664211238],[-87.5270092628626,27.9706104926109],[-87.5067214868055,27.9483074447056],[-87.4864337107484,27.9380121599188],[-87.4902980484034,27.9293461927374],[-87.4980267255099,27.9353523829662],[-87.5038232324414,27.9267720082318],[-87.4999588947865,27.9164746500455],[-87.49223021768,27.9121837918471],[-87.5096197402713,27.8328005278476]]]},"properties":{"objectid":1,"id":0,"Shape__Area":26925954381.285156,"Shape__Length":1806529.8353357883}},{"type":"Feature","id":2,"geometry":{"type":"Polygon","coordinates":[[[-89.1329559046056,28.1129183910571],[-89.1322313414637,28.1212696605844],[-89.1141172557306,28.12062727906],[-89.0844101543377,28.1199848928944],[-89.0612241248148,28.1219120390521],[-89.0489065469116,28.1231967836478],[-89.038038095292,28.1193425028799],[-89.038038095292,28.1296202732891],[-89.0134029385871,28.1373279476146],[-88.9880432178421,28.1437505815183],[-88.9822467109105,28.1540259863318],[-88.9721028224328,28.1649425120381],[-88.9496413560518,28.17072139342],[-88.9373237781486,28.1784260785705],[-88.9221079458812,28.1848462214909],[-88.9083412407959,28.1797101381476],[-88.9054429873301,28.1649425120381],[-88.8873289015969,28.1501728263593],[-88.8764604499774,28.1411815744827],[-88.8974727891763,28.1463195261454],[-88.8873289015969,28.133474180546],[-88.8742867596535,28.1270509242603],[-88.8663165614997,28.1174153105356],[-88.8518252932725,28.106493890445],[-88.8438550951187,28.0981414576908],[-88.8358848978633,28.0865754670404],[-88.8242918822035,28.0910735025814],[-88.8112497411584,28.0865754670404],[-88.8003812895388,28.0955713464821],[-88.7931356554252,28.1000690003082],[-88.7837163300894,28.1058514188243],[-88.7728478784699,28.1122759587084],[-88.7670513715383,28.107136358218],[-88.7627039908905,28.1103486377808],[-88.7576320471008,28.1161304958678],[-88.7569074830606,28.1264085773792],[-88.7547337927367,28.1354010818026],[-88.7482127226633,28.130262600922],[-88.7460390323394,28.1193425028799],[-88.7387933973275,28.1148456658058],[-88.7380688341856,28.1032814938656],[-88.7358951438617,28.0923586197316],[-88.7206793115943,28.0949288094592],[-88.7235775659584,28.0865754670404],[-88.7279249457079,28.0762935294402],[-88.7395179613677,28.0840050757261],[-88.7474881586231,28.0846476797196],[-88.7482127226633,28.0955713464821],[-88.7547337927367,28.1097061892472],[-88.7598057374247,28.1000690003082],[-88.7648776812144,28.0897883684608],[-88.7742970056519,28.1007115073482],[-88.7764706959758,28.0968564097802],[-88.7982075992149,28.0840050757261],[-88.8090760508345,28.0711521875415],[-88.8329866434992,28.0756508754571],[-88.8496516029486,28.0833624686794],[-88.8583463642442,28.1026390030072],[-88.8735621956133,28.114203245002],[-88.8931254085285,28.1212696605844],[-88.9047184232899,28.1405393130967],[-88.9155868749095,28.1540259863318],[-88.9213833827393,28.17072139342],[-88.9423957219383,28.1623740189909],[-88.971378259291,28.1501728263593],[-88.9880432178421,28.1309049247051],[-89.0293433339964,28.1161304958678],[-89.0648469423208,28.1097061892472],[-89.103248804111,28.1116335217191],[-89.1329559046056,28.1129183910571]]]},"properties":{"objectid":2,"id":0,"Shape__Area":86204662.107421875,"Shape__Length":133289.88775787552}},{"type":"Feature","id":3,"geometry":{"type":"Polygon","coordinates":[[[-89.6278327290271,28.2602180651661],[-89.6300064184527,28.2486697676496],[-89.647395941044,28.2515569604861],[-89.6539170120158,28.247707352402],[-89.652830167303,28.241932677735],[-89.6647854636353,28.2289385034581],[-89.6604380829875,28.2120918237694],[-89.6767407599677,28.2019825271763],[-89.6935868602025,28.2101663184323],[-89.6843486765505,28.2217188265513],[-89.6675025763156,28.2525193409896],[-89.6539170120158,28.2597369115403],[-89.6408748700723,28.2621426587403],[-89.6278327290271,28.2602180651661]]]},"properties":{"objectid":3,"id":0,"Shape__Area":18448227.982421875,"Shape__Length":24546.395634549961}},{"type":"Feature","id":4,"geometry":{"type":"Polygon","coordinates":[[[-89.7642317943822,28.1952424593911],[-89.7854252752649,28.187057513228],[-89.7865121199777,28.1971682368747],[-89.7642317943822,28.1952424593911]]]},"properties":{"objectid":4,"id":0,"Shape__Area":1568933.595703125,"Shape__Length":6350.6651605196939}},{"type":"Feature","id":5,"geometry":{"type":"Polygon","coordinates":[[[-89.8028147978562,28.1880204816231],[-89.803901642569,28.1793534570061],[-89.8261819681644,28.1817610351892],[-89.822378009873,28.1880204816231],[-89.8028147978562,28.1880204816231]]]},"properties":{"objectid":5,"id":0,"Shape__Area":2236605.68359375,"Shape__Length":6674.62362092548}},{"type":"Feature","id":6,"geometry":{"type":"Polygon","coordinates":[[[-89.8452017578249,28.1880204816231],[-89.8663952387077,28.1856130459563],[-89.8832413380442,28.1894649163691],[-89.8701991969991,28.1942795576366],[-89.8528096744078,28.1971682368747],[-89.8452017578249,28.1880204816231]]]},"properties":{"objectid":6,"id":0,"Shape__Area":3551712.673828125,"Shape__Length":9292.6087605057528}},{"type":"Feature","id":7,"geometry":{"type":"Polygon","coordinates":[[[-89.9500823148307,28.2053524000601],[-89.9495388924743,28.2226814786156],[-89.9614941888067,28.2303823794484],[-89.9479086245068,28.2356764226946],[-89.9332362154942,28.2313449525893],[-89.9261717212677,28.2193121580183],[-89.9299756795591,28.2048709966082],[-89.9500823148307,28.2053524000601]]]},"properties":{"objectid":7,"id":0,"Shape__Area":9295859.923828125,"Shape__Length":13038.329465176239}},{"type":"Feature","id":8,"geometry":{"type":"Polygon","coordinates":[[[-89.9685586821348,28.1201098013749],[-89.9587770761264,28.1254093625879],[-89.9419309758915,28.1230005042529],[-89.9598639208392,28.1138463424524],[-89.9685586821348,28.1201098013749]]]},"properties":{"objectid":8,"id":0,"Shape__Area":2140974.7734375,"Shape__Length":6733.97019381322}},{"type":"Feature","id":9,"geometry":{"type":"Polygon","coordinates":[[[-89.9810574017219,28.111919049745],[-90.0098587982891,28.0926441998475],[-90.0174667139736,28.1013183152716],[-90.0158364460061,28.1186644211039],[-90.0038811496738,28.1090280457461],[-89.9897521630175,28.1157735997324],[-89.9810574017219,28.111919049745]]]},"properties":{"objectid":9,"id":0,"Shape__Area":6106569.4453125,"Shape__Length":12279.731805386466}},{"type":"Feature","id":10,"geometry":{"type":"Polygon","coordinates":[[[-90.1114788193599,28.0680154901828],[-90.1364762576357,28.0766916159601],[-90.1756026834661,28.1060887766454],[-90.2179896443332,28.1205434118942],[-90.2223370240827,28.1393314941391],[-90.2016869664547,28.141739982231],[-90.1886448245113,28.1388497903396],[-90.1875579797985,28.1268064756349],[-90.1582131608748,28.1176526427664],[-90.1288683419512,28.0998244901738],[-90.1223472709794,28.0800654737834],[-90.1114788193599,28.0680154901828]]]},"properties":{"objectid":10,"id":0,"Shape__Area":32210301.521484375,"Shape__Length":33502.757966894766}},{"type":"Feature","id":11,"geometry":{"type":"Polygon","coordinates":[[[-90.1679947668833,28.0410185711864],[-90.1717987251747,28.0554820579075],[-90.1799500641139,28.0603027841259],[-90.163103963879,28.0680154901828],[-90.1457144412877,28.0665694003078],[-90.1304986099187,28.0612669029505],[-90.129955186664,28.0487326758095],[-90.1489749772228,28.0458399522064],[-90.1679947668833,28.0410185711864]]]},"properties":{"objectid":11,"id":0,"Shape__Area":12253662.212890625,"Shape__Length":14776.930084773761}},{"type":"Feature","id":12,"geometry":{"type":"Polygon","coordinates":[[[-90.3397163006756,28.0598207206778],[-90.3234136236954,28.0622310131269],[-90.3054806787477,28.0593386558605],[-90.304937255493,28.0492147889773],[-90.3109149041083,28.0410185711864],[-90.3114583264647,28.0289641641138],[-90.2973293398085,28.0328217233032],[-90.2451607729329,28.0337860909],[-90.2082080374264,28.042947150004],[-90.1989698537744,28.0333039077854],[-90.2163593763657,28.0275175434724],[-90.2424436593543,28.0236597925817],[-90.2625502946259,28.0255886857057],[-90.2821135075411,28.0241420196978],[-90.3033069884238,28.0193196560902],[-90.3201530877604,28.0188374081665],[-90.3299346937688,28.0270353322713],[-90.328847849056,28.0386077992392],[-90.3397163006756,28.0458399522064],[-90.3397163006756,28.0598207206778]]]},"properties":{"objectid":12,"id":0,"Shape__Area":30356472.302734375,"Shape__Length":41226.382135447013}},{"type":"Feature","id":13,"geometry":{"type":"Polygon","coordinates":[[[-90.6189549962399,27.9642596022592],[-90.6877885225649,27.9385233729306],[-90.709525425804,27.9507488542245],[-90.7174956230594,27.9488186082007],[-90.748651850736,27.9513922618982],[-90.7443044700882,27.9655462511399],[-90.7160464958774,27.9803415978672],[-90.7312623281448,27.962329600176],[-90.7153219327355,27.9706926908739],[-90.6906867760306,27.9719792622547],[-90.6957587198203,27.9642596022592],[-90.709525425804,27.962329600176],[-90.7022797907921,27.9565393844726],[-90.6566322948882,27.9681195020862],[-90.6370690819731,27.9777686408187],[-90.6189549962399,27.9642596022592]]]},"properties":{"objectid":13,"id":0,"Shape__Area":33029899.35546875,"Shape__Length":42926.195363991719}},{"type":"Feature","id":14,"geometry":{"type":"Polygon","coordinates":[[[-90.4291193776127,27.8760872901429],[-90.4117298550215,27.8767311469103],[-90.4110052918796,27.8619214651802],[-90.4052087840497,27.8529058751272],[-90.4153526716291,27.8490418190431],[-90.4197000522769,27.8599896169966],[-90.4291193776127,27.8760872901429]]]},"properties":{"objectid":14,"id":0,"Shape__Area":4440650.236328125,"Shape__Length":10082.539766210415}},{"type":"Feature","id":15,"geometry":{"type":"Polygon","coordinates":[[[-90.4378141380101,27.8406692195135],[-90.4291193776127,27.842601415901],[-90.4262211232487,27.8322959673991],[-90.4189754891351,27.8310077166221],[-90.4269456872888,27.8239220628272],[-90.4378141380101,27.8406692195135]]]},"properties":{"objectid":15,"id":0,"Shape__Area":1821391.669921875,"Shape__Length":6846.2812463452428}},{"type":"Feature","id":16,"geometry":{"type":"Polygon","coordinates":[[[-90.4494071536698,27.8290753121817],[-90.4515808439937,27.8161917245636],[-90.4660721122209,27.816835940969],[-90.4783896910225,27.810393606538],[-90.4986774670796,27.8097493519189],[-90.5204143694204,27.8123263474683],[-90.5146178624888,27.826498718085],[-90.5015757205454,27.827787023176],[-90.4841861979541,27.8342283144939],[-90.4704194928687,27.826498718085],[-90.4494071536698,27.8290753121817]]]},"properties":{"objectid":16,"id":0,"Shape__Area":15512911.3359375,"Shape__Length":19182.385955866739}},{"type":"Feature","id":17,"geometry":{"type":"Polygon","coordinates":[[[-90.4131789822035,27.7968634476597],[-90.421149179459,27.788486781597],[-90.4443352089818,27.7878423955057],[-90.4646229850389,27.7839759987594],[-90.5167915528127,27.7523952282826],[-90.5283845675741,27.7549735975481],[-90.5334565113638,27.7433704503105],[-90.5580916680687,27.746593672226],[-90.5493969067731,27.7337002067732],[-90.5711338100122,27.7253186274369],[-90.594319839535,27.7343449166419],[-90.5906970229274,27.7511060207544],[-90.5964935298589,27.7575519049614],[-90.5660618662225,27.7710870072726],[-90.5450495261253,27.7775316963069],[-90.5457740901654,27.7710870072726],[-90.5718583731541,27.7594855956489],[-90.5595407952508,27.7594855956489],[-90.5262108772502,27.7659309781585],[-90.5146178624888,27.7665754956549],[-90.4972283398975,27.7801094637446],[-90.4689703656867,27.7878423955057],[-90.463898421897,27.7962191112216],[-90.4791142541644,27.7962191112216],[-90.4653475490791,27.8033065924019],[-90.4573773509253,27.810393606538],[-90.4472334633459,27.8065280199199],[-90.4443352089818,27.7975077794833],[-90.4131789822035,27.7968634476597]]]},"properties":{"objectid":17,"id":0,"Shape__Area":48255756.568359375,"Shape__Length":63969.230287961458}},{"type":"Feature","id":18,"geometry":{"type":"Polygon","coordinates":[[[-90.5820022616317,27.7227395491254],[-90.57548119066,27.7091983757919],[-90.5834513879155,27.6963004410926],[-90.5972180938991,27.6988801509459],[-90.6109847989844,27.6956555039034],[-90.6051882911546,27.7079086516446],[-90.5921461492111,27.712422618655],[-90.5820022616317,27.7227395491254]]]},"properties":{"objectid":18,"id":0,"Shape__Area":6638186.40234375,"Shape__Length":11800.312246320742}},{"type":"Feature","id":19,"geometry":{"type":"Polygon","coordinates":[[[-90.4349158845443,27.7614192503981],[-90.4298439407546,27.7562627592846],[-90.4486825896296,27.7440151021649],[-90.4566527877834,27.7337002067732],[-90.4798388173063,27.7240290963053],[-90.4870844514198,27.7117777775476],[-90.4820125076302,27.6788857852856],[-90.4812879444883,27.6582425603356],[-90.4994020302214,27.6672744560548],[-90.510270481841,27.7027496009974],[-90.5037494108693,27.730476599423],[-90.4704194928687,27.7433704503105],[-90.4349158845443,27.7614192503981]]]},"properties":{"objectid":19,"id":0,"Shape__Area":31291020.2734375,"Shape__Length":35499.069087581491}},{"type":"Feature","id":20,"geometry":{"type":"Polygon","coordinates":[[[-90.6008409105067,27.6104254715451],[-90.6233023768877,27.6272058014262],[-90.6262006303535,27.6272058014262],[-90.6146076155921,27.6536618109217],[-90.6001163473649,27.6730157694078],[-90.6044637280127,27.6788212816104],[-90.5877987685633,27.6878514588924],[-90.5812776975916,27.6833364643813],[-90.6059128542964,27.6562425381966],[-90.5870742054214,27.6723706930989],[-90.594319839535,27.6568877104977],[-90.5935952763932,27.6523714236471],[-90.5762057538019,27.674950974687],[-90.5682355565464,27.6872064709924],[-90.5508460339551,27.6910763388554],[-90.5501214708133,27.6807563832515],[-90.5689601196883,27.6730157694078],[-90.5820022616317,27.6555973620884],[-90.5921461492111,27.6381761507921],[-90.5849005150975,27.6181705618739],[-90.6102602349442,27.6401119791914],[-90.6030146008307,27.6246243811754],[-90.6008409105067,27.6104254715451]]]},"properties":{"objectid":20,"id":0,"Shape__Area":26667334.298828125,"Shape__Length":50422.778315380048}},{"type":"Feature","id":21,"geometry":{"type":"Polygon","coordinates":[[[-90.5899724588872,27.6084891118014],[-90.57548119066,27.6046162904376],[-90.5667864293644,27.6000978233182],[-90.5573671049269,27.5897691914382],[-90.5747566275181,27.5884780430347],[-90.5921461492111,27.5929969939378],[-90.5899724588872,27.6084891118014]]]},"properties":{"objectid":21,"id":0,"Shape__Area":5866518.140625,"Shape__Length":10395.976147167257}},{"type":"Feature","id":22,"geometry":{"type":"Polygon","coordinates":[[[-90.5653373021823,27.6162343414326],[-90.551570597097,27.6226882756448],[-90.5240371869263,27.606552718629],[-90.5124441721649,27.6130072297037],[-90.4965037767557,27.6052617703039],[-90.4885335786019,27.5949336298222],[-90.5073722274769,27.5942880883288],[-90.5269354403921,27.5968702314932],[-90.5537442874209,27.6059072463677],[-90.5653373021823,27.6162343414326]]]},"properties":{"objectid":22,"id":0,"Shape__Area":13322281.61328125,"Shape__Length":19851.430554888633}},{"type":"Feature","id":23,"geometry":{"type":"Polygon","coordinates":[[[-90.4907072689258,27.62785114658],[-90.4762160006986,27.626560452468],[-90.4682458025448,27.6130072297037],[-90.4573773509253,27.6117163582305],[-90.4508562799536,27.6175251588637],[-90.4341913214025,27.6136526593376],[-90.4457843361639,27.5800852058538],[-90.445059773022,27.573628735392],[-90.4283948135726,27.5762113698116],[-90.4334667582606,27.5484448330062],[-90.4421615186579,27.5432781824338],[-90.4465088993057,27.5574858799455],[-90.4581019149655,27.5652347501149],[-90.4552036606014,27.5846045066041],[-90.4465088993057,27.6033253185019],[-90.4682458025448,27.5962247014045],[-90.4812879444883,27.5975157569841],[-90.4907072689258,27.62785114658]]]},"properties":{"objectid":23,"id":0,"Shape__Area":24741419.111328125,"Shape__Length":35967.821216753975}},{"type":"Feature","id":24,"geometry":{"type":"Polygon","coordinates":[[[-90.4994020302214,27.573628735392],[-90.4907072689258,27.5807308317613],[-90.486359888278,27.5826676866825],[-90.4711440560106,27.5742744000945],[-90.462449294715,27.5632975842502],[-90.4762160006986,27.5620061210819],[-90.4733177463345,27.5413406260201],[-90.4805633813464,27.5342359540716],[-90.4841861979541,27.5574858799455],[-90.4885335786019,27.5691089776831],[-90.4907072689258,27.5516738648119],[-90.486359888278,27.5322982358255],[-90.4979529030394,27.539403033844],[-90.4972283398975,27.5607146427196],[-90.4994020302214,27.573628735392]]]},"properties":{"objectid":24,"id":0,"Shape__Area":12808937.02734375,"Shape__Length":25948.317013495751}},{"type":"Feature","id":25,"geometry":{"type":"Polygon","coordinates":[[[-90.3544893434579,27.6007433297999],[-90.3530402171742,27.6142980859643],[-90.3414472024128,27.620752135878],[-90.3276804964291,27.6155889262159],[-90.3407226383726,27.6046162904376],[-90.3392735120889,27.5904147595404],[-90.3544893434579,27.6007433297999]]]},"properties":{"objectid":25,"id":0,"Shape__Area":5539504.970703125,"Shape__Length":10825.378377258197}},{"type":"Feature","id":26,"geometry":{"type":"Polygon","coordinates":[[[-90.1936362621835,27.7826227278167],[-90.1798695570982,27.7761783435891],[-90.1697256686205,27.7761783435891],[-90.1762467395922,27.7645774803427],[-90.1842169368477,27.7574874485965],[-90.1900134446775,27.7690890755895],[-90.2008818962971,27.7703780677662],[-90.1936362621835,27.7826227278167]]]},"properties":{"objectid":26,"id":0,"Shape__Area":4901763.326171875,"Shape__Length":10306.560260394428}},{"type":"Feature","id":27,"geometry":{"type":"Polygon","coordinates":[[[-90.2211696723542,28.7693865328297],[-90.2617452244683,28.7687481158424],[-90.3385489480487,28.760448334886],[-90.4233228697829,28.7457624728315],[-90.4508562799536,28.7342677346705],[-90.4312930679367,28.7342677346705],[-90.395064895572,28.744485342856],[-90.3349261314411,28.757255933591],[-90.2979733959346,28.7508708357933],[-90.3204348623155,28.7406538584574],[-90.3581121609639,28.7406538584574],[-90.3863701351747,28.7374608457452],[-90.421149179459,28.7272425435688],[-90.4508562799536,28.7246878097653],[-90.5030248477274,28.726603865774],[-90.5153424256307,28.7208555916106],[-90.5283845675741,28.7304358716468],[-90.5436003998415,28.7310745252403],[-90.5885233326035,28.7176619685318],[-90.6095356718024,28.726603865774],[-90.6414164626209,28.7278812166737],[-90.6769200709453,28.7195781540834],[-90.7037289179741,28.7119131980627],[-90.7232921308893,28.715745747081],[-90.7428553429062,28.7131907300058],[-90.7551729217078,28.7176619685318],[-90.748651850736,28.7291585519648],[-90.7428553429062,28.7483166859376],[-90.7334360184687,28.7566174416177],[-90.7399570894404,28.771940161721],[-90.7327114553268,28.7847073592296],[-90.7341605825089,28.8032169907252],[-90.7160464958774,28.8268279059479],[-90.6972078470024,28.8344843390501],[-90.681992014735,28.8497954965837],[-90.6428655898029,28.8625530556928],[-90.5682355565464,28.8804109814208],[-90.5624390487165,28.8721201872721],[-90.5798285713078,28.8644665534056],[-90.6088111086605,28.8638287252729],[-90.639242772297,28.8510713242668],[-90.6696744368317,28.8427781653725],[-90.6877885225649,28.8293801136776],[-90.7015552276502,28.819170904201],[-90.7196693133833,28.7853456777697],[-90.7196693133833,28.7495937682797],[-90.7124236792697,28.7336291005897],[-90.6986569741844,28.7495937682797],[-90.6805428884513,28.7591713860825],[-90.6522849142404,28.7547019414827],[-90.6348953916492,28.760448334886],[-90.6146076155921,28.7508708357933],[-90.5493969067731,28.7502323039886],[-90.5240371869263,28.7502323039886],[-90.4899827057839,28.744485342856],[-90.4320176310785,28.7515093629064],[-90.3668069222595,28.7642790860006],[-90.2588469710025,28.7802390200546],[-90.2211696723542,28.7693865328297]]]},"properties":{"objectid":27,"id":0,"Shape__Area":210101573.3515625,"Shape__Length":217683.34359194158}},{"type":"Feature","id":28,"geometry":{"type":"Polygon","coordinates":[[[-90.3059435940883,28.8421402026267],[-90.3697051757253,28.8229994762475],[-90.4052087840497,28.8210852086071],[-90.417526361953,28.8312942272303],[-90.3668069222595,28.8504334123816],[-90.333477004259,28.8816864294267],[-90.3349261314411,28.8421402026267],[-90.3197102991737,28.8459679204201],[-90.3059435940883,28.8421402026267]]]},"properties":{"objectid":28,"id":0,"Shape__Area":32248853.919921875,"Shape__Length":33333.237466423314}},{"type":"Feature","id":29,"geometry":{"type":"Polygon","coordinates":[[[-90.8146475029587,28.6929879065826],[-90.8217119971852,28.6632754139386],[-90.8293199128697,28.6527302243649],[-90.83203702555,28.6254036148892],[-90.8499699704977,28.6244446558827],[-90.8630121124412,28.6033453189827],[-90.8711634513804,28.6028657386775],[-90.8706200281257,28.6201292307712],[-90.8662726474779,28.6273215058338],[-90.8776845223522,28.6301982769419],[-90.8901832410409,28.6316366321399],[-90.8901832410409,28.6417045633834],[-90.8488831257849,28.643142759286],[-90.8586647317934,28.6599202428395],[-90.8450791674935,28.6603995593465],[-90.8439923227807,28.6723817596617],[-90.8347541382303,28.6723817596617],[-90.8347541382303,28.6867585732551],[-90.8282330672586,28.6963420076453],[-90.8146475029587,28.6929879065826]]]},"properties":{"objectid":29,"id":0,"Shape__Area":32916709.2734375,"Shape__Length":37961.959560677256}},{"type":"Feature","id":30,"geometry":{"type":"Polygon","coordinates":[[[-90.9570242178274,28.6191702227998],[-90.9450689214951,28.6186907155295],[-90.9445254982404,28.6095796598089],[-90.9543071051471,28.6086205547131],[-90.9570242178274,28.6191702227998]]]},"properties":{"objectid":30,"id":0,"Shape__Area":1513691.58984375,"Shape__Length":4956.3662855733537}},{"type":"Feature","id":31,"geometry":{"type":"Polygon","coordinates":[[[-90.9249622862235,28.6234856873279],[-90.921158327932,28.6316366321399],[-90.9130069889928,28.634033846997],[-90.9168109472842,28.6186907155295],[-90.9249622862235,28.6234856873279]]]},"properties":{"objectid":31,"id":0,"Shape__Area":1416210.48828125,"Shape__Length":5157.7797177614157}},{"type":"Feature","id":32,"geometry":{"type":"Polygon","coordinates":[[[-90.9276793989038,28.6330749676252],[-90.9293096668713,28.6464984727817],[-90.9189846376081,28.6373898550109],[-90.9276793989038,28.6330749676252]]]},"properties":{"objectid":32,"id":0,"Shape__Area":873635.158203125,"Shape__Length":4453.8472238134091}},{"type":"Feature","id":33,"geometry":{"type":"Polygon","coordinates":[[[-90.947242611819,28.7772866183239],[-90.9445254982404,28.7926062718267],[-90.9320267795516,28.7930849748324],[-90.9363741601994,28.7734563494046],[-90.947242611819,28.7772866183239]]]},"properties":{"objectid":33,"id":0,"Shape__Area":2970317.1328125,"Shape__Length":7205.4761307084937}},{"type":"Feature","id":34,"geometry":{"type":"Polygon","coordinates":[[[-90.8503322520686,28.964429114646],[-90.8278707856877,28.9465857967845],[-90.8351164206996,28.9414871353551],[-90.8503322520686,28.953596042286],[-90.8503322520686,28.964429114646]]]},"properties":{"objectid":34,"id":0,"Shape__Area":2893635,"Shape__Length":8079.9547877542027}},{"type":"Feature","id":35,"geometry":{"type":"Polygon","coordinates":[[[-90.8981534391947,28.976535311455],[-90.8959797488708,28.964429114646],[-90.9133692705637,28.9586941014063],[-90.9184412152517,28.965066318204],[-90.9227885958996,28.9822693259014],[-90.8981534391947,28.976535311455]]]},"properties":{"objectid":35,"id":0,"Shape__Area":5731676.576171875,"Shape__Length":9695.6542971990948}},{"type":"Feature","id":36,"geometry":{"type":"Polygon","coordinates":[[[-90.9285851028311,28.9746239016346],[-90.9322079203371,28.9637919071656],[-90.9503220060702,28.9720753000197],[-90.9409026816327,28.9822693259014],[-90.9285851028311,28.9746239016346]]]},"properties":{"objectid":36,"id":0,"Shape__Area":3001527.458984375,"Shape__Length":7060.582124945794}},{"type":"Feature","id":37,"geometry":{"type":"Polygon","coordinates":[[[-90.9358307369447,29.0472323749184],[-90.9068482004903,29.037681573999],[-90.9133692705637,29.029403491589],[-90.9271359765474,29.037681573999],[-90.9394535544507,29.0370448226638],[-90.9358307369447,29.0472323749184]]]},"properties":{"objectid":37,"id":0,"Shape__Area":3436366.578125,"Shape__Length":9319.6126867367275}},{"type":"Feature","id":38,"geometry":{"type":"Polygon","coordinates":[[[-89.9480152221917,29.209791146398],[-89.9306256996004,29.2059770296594],[-89.9422187143618,29.1945338184347],[-89.9625064904189,29.1818176272939],[-89.9639556176009,29.1938980466353],[-89.9480152221917,29.209791146398]]]},"properties":{"objectid":38,"id":0,"Shape__Area":5976764.60546875,"Shape__Length":10966.892634452759}},{"type":"Feature","id":39,"geometry":{"type":"Polygon","coordinates":[[[-89.6328301288179,29.0596612273702],[-89.6241353675223,29.0545681981696],[-89.6248599315625,29.0380140982656],[-89.6386266366478,29.0456547855748],[-89.6328301288179,29.0596612273702]]]},"properties":{"objectid":39,"id":0,"Shape__Area":2726857.375,"Shape__Length":6986.5450649278555}},{"type":"Feature","id":40,"geometry":{"type":"Polygon","coordinates":[[[-89.6292073122103,29.0182730117166],[-89.5951528301696,29.0042608953466],[-89.6002247748576,28.9940690591444],[-89.6205125509146,28.9972541171311],[-89.634279256,29.0048978512021],[-89.6292073122103,29.0182730117166]]]},"properties":{"objectid":40,"id":0,"Shape__Area":7366469.95703125,"Shape__Length":11507.769871296829}},{"type":"Feature","id":41,"geometry":{"type":"Polygon","coordinates":[[[-89.4024189580767,28.7296836739317],[-89.3879276889511,28.7392631362153],[-89.3756101110478,28.726490322874],[-89.3763346741897,28.7156321916017],[-89.3901013792751,28.7207420424677],[-89.4024189580767,28.7296836739317]]]},"properties":{"objectid":41,"id":0,"Shape__Area":4639728.576171875,"Shape__Length":8968.5679039119641}},{"type":"Feature","id":42,"geometry":{"type":"Polygon","coordinates":[[[-89.3277889239218,28.7788488305742],[-89.3357591220756,28.7820405642753],[-89.32706436078,28.7928917208419],[-89.3379328123995,28.7948065128583],[-89.3502503903028,28.7992742214927],[-89.3618434050642,28.811399884139],[-89.3611188419224,28.8228860389945],[-89.3502503903028,28.8267144728661],[-89.3292380511039,28.8126761872596],[-89.3190941626262,28.8171431218827],[-89.3205432898082,28.8005506739378],[-89.3017046409332,28.7935299884927],[-89.3277889239218,28.7788488305742]]]},"properties":{"objectid":42,"id":0,"Shape__Area":17352258.03515625,"Shape__Length":22202.125668385695}},{"type":"Feature","id":43,"geometry":{"type":"Polygon","coordinates":[[[-89.2480869468756,28.7731034612846],[-89.2306974242843,28.7794871849703],[-89.2212780998468,28.7692730372168],[-89.2075113947615,28.7635271351202],[-89.2002657597496,28.7545884291148],[-89.1951938159599,28.7654424709682],[-89.1799779836925,28.7673577716676],[-89.1864990546643,28.7539499208292],[-89.1778042933686,28.7424560930614],[-89.1901218721702,28.739901735076],[-89.2096850850854,28.7450103870169],[-89.2220026629887,28.7565039313323],[-89.2386676224381,28.7558654347601],[-89.2480869468756,28.7731034612846]]]},"properties":{"objectid":43,"id":0,"Shape__Area":16976319.732421875,"Shape__Length":23627.132631879296}},{"type":"Feature","id":44,"geometry":{"type":"Polygon","coordinates":[[[-89.2712729763985,28.8394748925621],[-89.2531588906653,28.8433027099907],[-89.2379430583979,28.8356469327367],[-89.2089605210452,28.8203336712772],[-89.1727323495789,28.811399884139],[-89.1299831071409,28.811399884139],[-89.0930303725327,28.8299047258339],[-89.0799882305893,28.8420267862332],[-89.0683952158278,28.8369229347291],[-89.0683952158278,28.8260764108551],[-89.0952040628567,28.8037417370459],[-89.1299831071409,28.7935299884927],[-89.1582410813517,28.7954447687855],[-89.1995411966077,28.8011888946913],[-89.2335956777501,28.8139524739553],[-89.2712729763985,28.8394748925621]]]},"properties":{"objectid":44,"id":0,"Shape__Area":49816982.962890625,"Shape__Length":51857.4280142167}},{"type":"Feature","id":45,"geometry":{"type":"Polygon","coordinates":[[[-89.0988268794643,28.7743802372719],[-89.086509301561,28.7775721092751],[-89.0720180324355,28.7762953723502],[-89.0495565660545,28.7756569976346],[-89.0510056932366,28.7667193422691],[-89.0727425964757,28.7686346195352],[-89.0886829918849,28.7622502239787],[-89.0988268794643,28.7743802372719]]]},"properties":{"objectid":45,"id":0,"Shape__Area":6317066.353515625,"Shape__Length":12992.171951521392}},{"type":"Feature","id":46,"geometry":{"type":"Polygon","coordinates":[[[-89.0205740287018,28.7922534492832],[-89.0075318876567,28.8005506739378],[-89.0075318876567,28.7858705148462],[-89.0017353798268,28.7724650670381],[-89.0198494655599,28.7782104714842],[-89.0205740287018,28.7922534492832]]]},"properties":{"objectid":46,"id":0,"Shape__Area":4096931.88671875,"Shape__Length":9409.479143587967}}]}